H1 CPF 01  gfz 2021 04 29 00  6191 terrasarx 
H2 0702601  6201 31698    2021 04 29 00 59 42 2021 05 04 00 00 42   120 1 1  0 0 0
H9
10 0 59337  38862.000000  0    -723139.826   -653747.082  -6825853.852
10 0 59337  38982.000000  0   -1007714.706    219126.827  -6817568.319
10 0 59337  39102.000000  0   -1259555.559   1092900.902  -6690397.009
10 0 59337  39222.000000  0   -1474418.414   1951831.689  -6446527.116
10 0 59337  39342.000000  0   -1648965.372   2780349.907  -6090155.833
10 0 59337  39462.000000  0   -1780816.374   3563338.142  -5627427.360
10 0 59337  39582.000000  0   -1868580.891   4286405.050  -5066337.062
10 0 59337  39702.000000  0   -1911869.563   4936152.041  -4416605.244
10 0 59337  39822.000000  0   -1911285.240   5500427.476  -3689518.679
10 0 59337  39942.000000  0   -1868392.511   5968561.512  -2897742.596
10 0 59337  40062.000000  0   -1785666.372   6331577.609  -2055106.636
10 0 59337  40182.000000  0   -1666421.699   6582376.466  -1176365.734
10 0 59337  40302.000000  0   -1514723.905   6715884.927   -276940.580
10 0 59337  40422.000000  0   -1335283.144   6729168.404    627356.456
10 0 59337  40542.000000  0   -1133334.039   6621502.365   1520608.464
10 0 59337  40662.000000  0    -914504.328   6394395.203   2387085.585
10 0 59337  40782.000000  0    -684675.451   6051565.218   3211529.895
10 0 59337  40902.000000  0    -449839.523   5598875.198   3979429.850
10 0 59337  41022.000000  0    -215956.666   5044226.395   4677280.587
10 0 59337  41142.000000  0      11185.430   4397409.014   5292826.162
10 0 59337  41262.000000  0     226106.051   3669918.075   5815269.913
10 0 59337  41382.000000  0     423755.121   2874742.240   6235461.036
10 0 59337  41502.000000  0     599624.786   2026123.644   6546049.390
10 0 59337  41622.000000  0     749846.776   1139298.215   6741607.942
10 0 59337  41742.000000  0     871273.570    230219.159   6818721.633
10 0 59337  41862.000000  0     961542.170   -684729.193   6776042.883
10 0 59337  41982.000000  0    1019119.358  -1589026.049   6614314.999
10 0 59337  42102.000000  0    1043327.819  -2466312.133   6336360.350
10 0 59337  42222.000000  0    1034352.732  -3300686.520   5947034.811
10 0 59337  42342.000000  0     993227.830  -4076997.234   5453146.383
10 0 59337  42462.000000  0     921803.165  -4781118.410   4863341.152
10 0 59337  42582.000000  0     822694.479  -5400212.555   4187959.089
10 0 59337  42702.000000  0     699214.499  -5922974.277   3438858.145
10 0 59337  42822.000000  0     555287.407  -6339847.304   2629207.678
10 0 59337  42942.000000  0     395348.062  -6643209.011   1773255.828
10 0 59337  43062.000000  0     224228.642  -6827518.382    886075.807
10 0 59337  43182.000000  0      47035.480  -6889425.967    -16705.706
10 0 59337  43302.000000  0    -130981.647  -6827838.130   -919194.357
10 0 59337  43422.000000  0    -304562.628  -6643933.643  -1805517.679
10 0 59337  43542.000000  0    -468569.672  -6341135.126  -2660111.431
10 0 59337  43662.000000  0    -618116.434  -5925037.285  -3467998.494
10 0 59337  43782.000000  0    -748690.640  -5403292.478  -4215054.839
10 0 59337  43902.000000  0    -856266.749  -4785456.446  -4888255.729
10 0 59337  44022.000000  0    -937406.158  -4082800.922  -5475897.336
10 0 59337  44142.000000  0    -989342.877  -3308097.767  -5967792.124
10 0 59337  44262.000000  0   -1010052.904  -2475379.327  -6355435.372
10 0 59337  44382.000000  0    -998306.412  -1599679.940  -6632140.833
10 0 59337  44502.000000  0    -953702.163   -696764.623  -6793144.807
10 0 59337  44622.000000  0    -876683.811    217151.355  -6835679.647
10 0 59337  44742.000000  0    -768536.938   1125687.678  -6759015.029
10 0 59337  44862.000000  0    -631367.895   2012584.745  -6564468.914
10 0 59337  44982.000000  0    -468065.000   2861987.133  -6255387.559
10 0 59337  45102.000000  0    -282241.561   3658722.214  -5837095.663
10 0 59337  45222.000000  0     -78161.323   4388569.912  -5316813.923
10 0 59337  45342.000000  0     139351.817   5038517.544  -4703545.446
10 0 59337  45462.000000  0     365018.406   5596997.998  -4007931.489
10 0 59337  45582.000000  0     593221.065   6054104.868  -3242076.147
10 0 59337  45702.000000  0     818132.668   6401779.315  -2419342.890
10 0 59337  45822.000000  0    1033852.523   6633965.092  -1554125.306
10 0 59337  45942.000000  0    1234547.326   6746726.582   -661594.880
10 0 59337  46062.000000  0    1414593.684   6738325.901    242569.256
10 0 59337  46182.000000  0    1568718.109   6609255.409   1142462.832
10 0 59337  46302.000000  0    1692130.042   6362225.729   2022243.789
10 0 59337  46422.000000  0    1780645.841   6002110.300   2866419.178
10 0 59337  46542.000000  0    1830800.201   5535846.973   3660125.646
10 0 59337  46662.000000  0    1839941.666   4972298.396   4389398.334
10 0 59337  46782.000000  0    1806310.260   4322074.261   5041420.790
10 0 59337  46902.000000  0    1729094.855   3597319.612   5604750.813
10 0 59337  47022.000000  0    1608469.376   2811479.610   6069515.874
10 0 59337  47142.000000  0    1445608.409   1979044.075   6427582.011
10 0 59337  47262.000000  0    1242680.796   1115274.672   6672690.829
10 0 59337  47382.000000  0    1002821.919    235921.710   6800561.845
10 0 59337  47502.000000  0     730085.394   -643062.061   6808962.069
10 0 59337  47622.000000  0     429374.436  -1505810.316   6697744.333
10 0 59337  47742.000000  0     106353.566  -2336829.603   6468849.769
10 0 59337  47862.000000  0    -232657.931  -3121278.150   6126276.093
10 0 59337  47982.000000  0    -580807.843  -3845232.286   5676009.756
10 0 59337  48102.000000  0    -930846.106  -4495934.230   5125926.412
10 0 59337  48222.000000  0   -1275272.490  -5062021.843   4485662.207
10 0 59337  48342.000000  0   -1606495.217  -5533736.908   3766451.546
10 0 59337  48462.000000  0   -1916995.254  -5903103.532   2980931.973
10 0 59337  48582.000000  0   -2199493.386  -6164071.631   2142922.003
10 0 59337  48702.000000  0   -2447116.142  -6312623.526   1267175.420
10 0 59337  48822.000000  0   -2653555.204  -6346840.700    369115.726
10 0 59337  48942.000000  0   -2813217.041  -6266928.595   -535443.203
10 0 59337  49062.000000  0   -2921358.831  -6075198.488  -1430584.412
10 0 59337  49182.000000  0   -2974207.502  -5776006.666  -2300576.647
10 0 59337  49302.000000  0   -2969058.848  -5375652.841  -3130158.239
10 0 59337  49422.000000  0   -2904353.740  -4882240.165  -3904809.915
10 0 59337  49542.000000  0   -2779729.645  -4305501.387  -4611009.427
10 0 59337  49662.000000  0   -2596047.384  -3656597.534  -5236463.737
10 0 59337  49782.000000  0   -2355393.455  -2947894.062  -5770316.039
10 0 59337  49902.000000  0   -2061058.040  -2192719.391  -6203325.162
10 0 59337  50022.000000  0   -1717488.332  -1405110.766  -6528015.068
10 0 59337  50142.000000  0   -1330219.343   -599552.896  -6738792.088
10 0 59337  50262.000000  0    -905784.709    209285.395  -6832030.335
10 0 59337  50382.000000  0    -451607.799   1006812.105  -6806126.856
10 0 59337  50502.000000  0      24125.635   1778768.506  -6661526.004
10 0 59337  50622.000000  0     512610.002   2511477.195  -6400713.193
10 0 59337  50742.000000  0    1004579.096   3192080.539  -6028178.887
10 0 59337  50862.000000  0    1490478.118   3808764.778  -5550348.612
10 0 59337  50982.000000  0    1960645.021   4350965.462  -4975482.416
10 0 59337  51102.000000  0    2405500.067   4809552.893  -4313544.096
10 0 59337  51222.000000  0    2815739.325   5176993.541  -3576038.456
10 0 59337  51342.000000  0    3182528.093   5447482.542  -2775819.820
10 0 59337  51462.000000  0    3497691.271   5617045.441  -1926873.411
10 0 59337  51582.000000  0    3753895.095   5683604.672  -1044072.270
10 0 59337  51702.000000  0    3944815.209   5647009.414   -142914.077
10 0 59337  51822.000000  0    4065286.721   5509026.680    760756.675
10 0 59337  51942.000000  0    4111432.403   5273292.977   1651034.990
10 0 59337  52062.000000  0    4080765.143   4945228.508   2512242.469
10 0 59337  52182.000000  0    3972263.659   4531917.828   3329213.068
10 0 59337  52302.000000  0    3786415.368   4041953.601   4087567.894
10 0 59337  52422.000000  0    3525230.371   3485253.916   4773971.034
10 0 59337  52542.000000  0    3192223.872   2872857.346   5376367.895
10 0 59337  52662.000000  0    2792364.871   2216696.784   5884195.382
10 0 59337  52782.000000  0    2331999.692   1529362.009   6288560.965
10 0 59337  52902.000000  0    1818748.036    823854.272   6582393.295
10 0 59337  53022.000000  0    1261373.448    113338.831   6760558.922
10 0 59337  53142.000000  0     669631.792   -589099.347   6819947.086
10 0 59337  53262.000000  0      54099.918  -1270696.777   6759521.758
10 0 59337  53382.000000  0    -574013.645  -1919243.233   6580338.127
10 0 59337  53502.000000  0   -1203072.619  -2523300.515   6285524.454
10 0 59337  53622.000000  0   -1821226.667  -3072404.045   5880229.405
10 0 59337  53742.000000  0   -2416632.448  -3557245.533   5371538.871
10 0 59337  53862.000000  0   -2977682.145  -3969835.297   4768360.204
10 0 59337  53982.000000  0   -3493234.190  -4303639.407   4081271.704
10 0 59337  54102.000000  0   -3952838.142  -4553687.965   3322339.958
10 0 59337  54222.000000  0   -4346949.407  -4716653.243   2504909.456
10 0 59337  54342.000000  0   -4667130.788  -4790896.245   1643367.348
10 0 59337  54462.000000  0   -4906235.379  -4776478.740    752885.642
10 0 59337  54582.000000  0   -5058565.384  -4675140.397   -150852.634
10 0 59337  54702.000000  0   -5120003.209  -4490241.800  -1051938.074
10 0 59337  54822.000000  0   -5088110.744  -4226674.356  -1934524.782
10 0 59337  54942.000000  0   -4962193.492  -3890738.525  -2783117.938
10 0 59337  55062.000000  0   -4743328.548  -3489994.973  -3582851.045
10 0 59337  55182.000000  0   -4434357.568  -3033093.785  -4319748.052
10 0 59337  55302.000000  0   -4039845.149  -2529585.660  -4980966.205
99
